{
  "type": "FeatureCollection",
  "features": [
    {
      "type": "Feature",
      "properties": {
        "norad_id": 66052,
        "name": "HRC MONOBLOCK CAMERA",
        "group": "stations",
        "lat": 51.58473096788102,
        "lon": -97.2405634046836,
        "alt_km": 398.23206765632494,
        "timestamp": "2025-12-06T22:38:41.529055+00:00",
        "meta_object_name": "HRC MONOBLOCK CAMERA",
        "meta_object_id": "1998-067XR",
        "meta_epoch": "2025-12-06T12:59:24.130464",
        "meta_mean_motion": 15.53538998,
        "meta_eccentricity": 0.00041207,
        "meta_inclination": 51.6285,
        "meta_ra_of_asc_node": 172.3998,
        "meta_arg_of_pericenter": 160.0329,
        "meta_mean_anomaly": 200.0823,
        "meta_ephemeris_type": 0,
        "meta_classification_type": "U",
        "meta_norad_cat_id": 66052,
        "meta_element_set_no": 999,
        "meta_rev_at_epoch": 787,
        "meta_bstar": 0.00076054716,
        "meta_mean_motion_dot": 0.00049118,
        "meta_mean_motion_ddot": 0,
        "tle_line1": "1 66052U 98067XR  25340.54125151  .00049118  00000+0  76055-3 0  9995",
        "tle_line2": "2 66052  51.6285 172.3998 0004120 160.0329 200.0823 15.53538998  7878"
      },
      "geometry": {
        "type": "Point",
        "coordinates": [
          -97.2405634046836,
          51.58473096788102
        ]
      }
    },
    {
      "type": "Feature",
      "properties": {
        "norad_id": 66174,
        "name": "HTV-X1",
        "group": "stations",
        "lat": 49.50083900972538,
        "lon": -120.74501241359965,
        "alt_km": 413.50422249625717,
        "timestamp": "2025-12-06T22:38:41.529066+00:00",
        "meta_object_name": "HTV-X1",
        "meta_object_id": "2025-241A",
        "meta_epoch": "2025-12-06T13:01:49.374912",
        "meta_mean_motion": 15.4936639,
        "meta_eccentricity": 0.00035502,
        "meta_inclination": 51.6299,
        "meta_ra_of_asc_node": 173.16,
        "meta_arg_of_pericenter": 211.9909,
        "meta_mean_anomaly": 148.0864,
        "meta_ephemeris_type": 0,
        "meta_classification_type": "U",
        "meta_norad_cat_id": 66174,
        "meta_element_set_no": 999,
        "meta_rev_at_epoch": 51,
        "meta_bstar": 0.00027332684,
        "meta_mean_motion_dot": 0.00014832,
        "meta_mean_motion_ddot": 0,
        "tle_line1": "1 66174U 25241A   25340.54293258  .00014832  00000+0  27333-3 0  9998",
        "tle_line2": "2 66174  51.6299 173.1600 0003550 211.9909 148.0864 15.49366390   513"
      },
      "geometry": {
        "type": "Point",
        "coordinates": [
          -120.74501241359965,
          49.50083900972538
        ]
      }
    },
    {
      "type": "Feature",
      "properties": {
        "norad_id": 66515,
        "name": "SZ-21 MODULE",
        "group": "stations",
        "lat": 7.993078422134906,
        "lon": -137.75381432860326,
        "alt_km": 378.13602211364196,
        "timestamp": "2025-12-06T22:38:41.529076+00:00",
        "meta_object_name": "SZ-21 MODULE",
        "meta_object_id": "2025-246C",
        "meta_epoch": "2025-12-06T09:39:14.908896",
        "meta_mean_motion": 15.62039048,
        "meta_eccentricity": 0.00061192,
        "meta_inclination": 41.4777,
        "meta_ra_of_asc_node": 54.6933,
        "meta_arg_of_pericenter": 224.7336,
        "meta_mean_anomaly": 135.3011,
        "meta_ephemeris_type": 0,
        "meta_classification_type": "U",
        "meta_norad_cat_id": 66515,
        "meta_element_set_no": 999,
        "meta_rev_at_epoch": 345,
        "meta_bstar": 0.00043904376,
        "meta_mean_motion_dot": 0.00039389,
        "meta_mean_motion_ddot": 0,
        "tle_line1": "1 66515U 25246C   25340.40225589  .00039389  00000+0  43904-3 0  9995",
        "tle_line2": "2 66515  41.4777  54.6933 0006119 224.7336 135.3011 15.62039048  3453"
      },
      "geometry": {
        "type": "Point",
        "coordinates": [
          -137.75381432860326,
          7.993078422134906
        ]
      }
    },
    {
      "type": "Feature",
      "properties": {
        "norad_id": 66645,
        "name": "SHENZHOU-22",
        "group": "stations",
        "lat": -20.443721291151352,
        "lon": 26.918242529889003,
        "alt_km": 386.7234737216386,
        "timestamp": "2025-12-06T22:38:41.529086+00:00",
        "meta_object_name": "SHENZHOU-22",
        "meta_object_id": "2025-272A",
        "meta_epoch": "2025-12-06T15:05:32.998560",
        "meta_mean_motion": 15.5879906,
        "meta_eccentricity": 0.00095344,
        "meta_inclination": 41.4683,
        "meta_ra_of_asc_node": 53.7961,
        "meta_arg_of_pericenter": 342.8614,
        "meta_mean_anomaly": 17.1901,
        "meta_ephemeris_type": 0,
        "meta_classification_type": "U",
        "meta_norad_cat_id": 66645,
        "meta_element_set_no": 999,
        "meta_rev_at_epoch": 26300,
        "meta_bstar": 0.00036466504,
        "meta_mean_motion_dot": 0.00028802,
        "meta_mean_motion_ddot": 0,
        "tle_line1": "1 66645U 25272A   25340.62885415  .00028802  00000+0  36467-3 0  9996",
        "tle_line2": "2 66645  41.4683  53.7961 0009534 342.8614  17.1901 15.58799060263005"
      },
      "geometry": {
        "type": "Point",
        "coordinates": [
          26.918242529889003,
          -20.443721291151352
        ]
      }
    },
    {
      "type": "Feature",
      "properties": {
        "norad_id": 66646,
        "name": "CZ-2F R/B",
        "group": "stations",
        "lat": 35.39459370887682,
        "lon": 99.68496183679676,
        "alt_km": 195.89226042868086,
        "timestamp": "2025-12-06T22:38:41.529097+00:00",
        "meta_object_name": "CZ-2F R/B",
        "meta_object_id": "2025-272B",
        "meta_epoch": "2025-12-06T15:03:31.842432",
        "meta_mean_motion": 16.3225557,
        "meta_eccentricity": 0.0042353,
        "meta_inclination": 41.4546,
        "meta_ra_of_asc_node": 48.2158,
        "meta_arg_of_pericenter": 219.2345,
        "meta_mean_anomaly": 140.5446,
        "meta_ephemeris_type": 0,
        "meta_classification_type": "U",
        "meta_norad_cat_id": 66646,
        "meta_element_set_no": 999,
        "meta_rev_at_epoch": 185,
        "meta_bstar": 0.00051205,
        "meta_mean_motion_dot": 0.04297839,
        "meta_mean_motion_ddot": 7.8251e-06,
        "tle_line1": "1 66646U 25272B   25340.62745188  .04297839  78251-5  51205-3 0  9997",
        "tle_line2": "2 66646  41.4546  48.2158 0042353 219.2345 140.5446 16.32255570  1859"
      },
      "geometry": {
        "type": "Point",
        "coordinates": [
          99.68496183679676,
          35.39459370887682
        ]
      }
    },
    {
      "type": "Feature",
      "properties": {
        "norad_id": 66664,
        "name": "SOYUZ-MS 28",
        "group": "stations",
        "lat": 49.50083978553627,
        "lon": -120.74500851215959,
        "alt_km": 413.5042223119053,
        "timestamp": "2025-12-06T22:38:41.529107+00:00",
        "meta_object_name": "SOYUZ-MS 28",
        "meta_object_id": "2025-275A",
        "meta_epoch": "2025-12-06T13:01:49.374912",
        "meta_mean_motion": 15.4936639,
        "meta_eccentricity": 0.00035502,
        "meta_inclination": 51.6299,
        "meta_ra_of_asc_node": 173.16,
        "meta_arg_of_pericenter": 211.9909,
        "meta_mean_anomaly": 148.0864,
        "meta_ephemeris_type": 0,
        "meta_classification_type": "U",
        "meta_norad_cat_id": 66664,
        "meta_element_set_no": 999,
        "meta_rev_at_epoch": 128,
        "meta_bstar": 0.00027332684,
        "meta_mean_motion_dot": 0.00014832,
        "meta_mean_motion_ddot": 0,
        "tle_line1": "1 66664U 25275A   25340.54293258  .00014832  00000+0  27333-3 0  9999",
        "tle_line2": "2 66664  51.6299 173.1600 0003550 211.9909 148.0864 15.49366390  1282"
      },
      "geometry": {
        "type": "Point",
        "coordinates": [
          -120.74500851215959,
          49.50083978553627
        ]
      }
    },
    {
      "type": "Feature",
      "properties": {
        "norad_id": 66906,
        "name": "1998-067XS",
        "group": "stations",
        "lat": 51.508080004695664,
        "lon": -103.73469538326962,
        "alt_km": 409.2421509659325,
        "timestamp": "2025-12-06T22:38:41.529117+00:00",
        "meta_object_name": "1998-067XS",
        "meta_object_id": "1998-067XS",
        "meta_epoch": "2025-12-06T14:32:06.723168",
        "meta_mean_motion": 15.50122906,
        "meta_eccentricity": 0.0004191,
        "meta_inclination": 51.6297,
        "meta_ra_of_asc_node": 172.8292,
        "meta_arg_of_pericenter": 176.5725,
        "meta_mean_anomaly": 183.5293,
        "meta_ephemeris_type": 0,
        "meta_classification_type": "U",
        "meta_norad_cat_id": 66906,
        "meta_element_set_no": 999,
        "meta_rev_at_epoch": 66,
        "meta_bstar": 0.00066148009,
        "meta_mean_motion_dot": 0.00037648,
        "meta_mean_motion_ddot": 0,
        "tle_line1": "1 66906U 98067XS  25340.60563337  .00037648  00000+0  66148-3 0  9999",
        "tle_line2": "2 66906  51.6297 172.8292 0004191 176.5725 183.5293 15.50122906   662"
      },
      "geometry": {
        "type": "Point",
        "coordinates": [
          -103.73469538326962,
          51.508080004695664
        ]
      }
    }
  ]
}